[{"OBJECT_NAME":"CONTINUUM-1","OBJECT_ID":"2023-001AN","EPOCH":"2026-03-09T23:17:35.458656","MEAN_MOTION":15.27981258,"ECCENTRICITY":0.00109493,"INCLINATION":97.3456,"RA_OF_ASC_NODE":133.3964,"ARG_OF_PERICENTER":60.1976,"MEAN_ANOMALY":300.0351,"EPHEMERIS_TYPE":0,"CLASSIFICATION_TYPE":"U","NORAD_CAT_ID":55045,"ELEMENT_SET_NO":999,"REV_AT_EPOCH":17709,"BSTAR":0.00052859897,"MEAN_MOTION_DOT":0.00014395,"MEAN_MOTION_DDOT":0},{"OBJECT_NAME":"STARLINK-30395","OBJECT_ID":"2023-138E","EPOCH":"2026-03-09T22:00:01.999584","MEAN_MOTION":15.26704896,"ECCENTRICITY":0.00013413,"INCLINATION":43.0011,"RA_OF_ASC_NODE":232.8338,"ARG_OF_PERICENTER":272.4288,"MEAN_ANOMALY":94.4771,"EPHEMERIS_TYPE":0,"CLASSIFICATION_TYPE":"U","NORAD_CAT_ID":57812,"ELEMENT_SET_NO":999,"REV_AT_EPOCH":578,"BSTAR":0.0026901843,"MEAN_MOTION_DOT":0.00072536,"MEAN_MOTION_DDOT":0}]
